[{"OBJECT_NAME":"STARLINK-31966","OBJECT_ID":"2024-106Y","EPOCH":"2026-03-09T02:50:10.643136","MEAN_MOTION":15.27555294,"ECCENTRICITY":3.292e-5,"INCLINATION":43.0015,"RA_OF_ASC_NODE":335.8992,"ARG_OF_PERICENTER":185.6983,"MEAN_ANOMALY":174.3865,"EPHEMERIS_TYPE":0,"CLASSIFICATION_TYPE":"U","NORAD_CAT_ID":59944,"ELEMENT_SET_NO":999,"REV_AT_EPOCH":10048,"BSTAR":-0.00012114449,"MEAN_MOTION_DOT":-3.591e-5,"MEAN_MOTION_DDOT":0},{"OBJECT_NAME":"COSMOS 546","OBJECT_ID":"1973-005A","EPOCH":"2026-03-09T21:40:39.247392","MEAN_MOTION":15.29707303,"ECCENTRICITY":0.00147738,"INCLINATION":50.6327,"RA_OF_ASC_NODE":289.914,"ARG_OF_PERICENTER":261.1516,"MEAN_ANOMALY":98.7778,"EPHEMERIS_TYPE":0,"CLASSIFICATION_TYPE":"U","NORAD_CAT_ID":6350,"ELEMENT_SET_NO":999,"REV_AT_EPOCH":92802,"BSTAR":9.142057e-5,"MEAN_MOTION_DOT":2.316e-5,"MEAN_MOTION_DDOT":0}]
